{"type": "FeatureCollection", "features": [ {"type": "Feature", "properties": {"norad_id": 31168, "name": "FENGYUN 1C DEB", "group": "fengyun-1c-debris", "lat": -62.133265575226545, "lon": 150.02284695055977, "alt_km": 668.9014729823775, "timestamp": "2025-12-26T09:30:53.918829+00:00", "meta": {"OBJECT_NAME": "FENGYUN 1C DEB", "OBJECT_ID": "1999-025BHW", "EPOCH": "2025-12-25T02:42:28.009152", "MEAN_MOTION": 14.67430174, "ECCENTRICITY": 0.0108315, "INCLINATION": 98.8908, "RA_OF_ASC_NODE": 131.4096, "ARG_OF_PERICENTER": 25.5219, "MEAN_ANOMALY": 335.1276, "EPHEMERIS_TYPE": 0, "CLASSIFICATION_TYPE": "U", "NORAD_CAT_ID": 31168, "ELEMENT_SET_NO": 999, "REV_AT_EPOCH": 99302, "BSTAR": 0.00058704, "MEAN_MOTION_DOT": 3.566e-05, "MEAN_MOTION_DDOT": 0}, "tle": {"line1": "1 31168U 99025BHW 25359.11282418  .00003566  00000+0  58704-3 0  9991", "line2": "2 31168  98.8908 131.4096 0108315  25.5219 335.1276 14.67430174993026"}}, "geometry": {"type": "Point", "coordinates": [150.02284695055977, -62.133265575226545]}}, {"type": "Feature", "properties": {"norad_id": 31169, "name": "FENGYUN 1C DEB", "group": "fengyun-1c-debris", "lat": -50.17881589794596, "lon": 38.601050687473034, "alt_km": 773.917753054976, "timestamp": "2025-12-26T09:30:53.918839+00:00", "meta": {"OBJECT_NAME": "FENGYUN 1C DEB", "OBJECT_ID": "1999-025BHX", "EPOCH": "2025-12-24T00:31:09.564672", "MEAN_MOTION": 14.2655263, "ECCENTRICITY": 0.00572713, "INCLINATION": 99.1564, "RA_OF_ASC_NODE": 24.9651, "ARG_OF_PERICENTER": 344.5259, "MEAN_ANOMALY": 15.4167, "EPHEMERIS_TYPE": 0, "CLASSIFICATION_TYPE": "U", "NORAD_CAT_ID": 31169, "ELEMENT_SET_NO": 999, "REV_AT_EPOCH": 57265, "BSTAR": 0.0020668623, "MEAN_MOTION_DOT": 5.027e-05, "MEAN_MOTION_DDOT": 0}, "tle": {"line1": "1 31169U 99025BHX 25358.02163848  .00005027  00000+0  20669-2 0  9998", "line2": "2 31169  99.1564  24.9651 0057271 344.5259  15.4167 14.26552630572650"}}, "geometry": {"type": "Point", "coordinates": [38.601050687473034, -50.17881589794596]}}, {"type": "Feature", "properties": {"norad_id": 31171, "name": "FENGYUN 1C DEB", "group": "fengyun-1c-debris", "lat": 78.66842002537533, "lon": -146.21509475711355, "alt_km": 876.6330559414137, "timestamp": "2025-12-26T09:30:53.918849+00:00", "meta": {"OBJECT_NAME": "FENGYUN 1C DEB", "OBJECT_ID": "1999-025BHZ", "EPOCH": "2025-12-23T05:49:54.685056", "MEAN_MOTION": 14.35071995, "ECCENTRICITY": 0.01531947, "INCLINATION": 98.0162, "RA_OF_ASC_NODE": 346.1686, "ARG_OF_PERICENTER": 284.8924, "MEAN_ANOMALY": 90.6441, "EPHEMERIS_TYPE": 0, "CLASSIFICATION_TYPE": "U", "NORAD_CAT_ID": 31171, "ELEMENT_SET_NO": 999, "REV_AT_EPOCH": 95981, "BSTAR": 0.0038414381, "MEAN_MOTION_DOT": 0.00012487, "MEAN_MOTION_DDOT": 0}, "tle": {"line1": "1 31171U 99025BHZ 25357.24299404  .00012487  00000+0  38414-2 0  9997", "line2": "2 31171  98.0162 346.1686 0153194 284.8924  90.6441 14.35071995959815"}}, "geometry": {"type": "Point", "coordinates": [-146.21509475711355, 78.66842002537533]}}, {"type": "Feature", "properties": {"norad_id": 31172, "name": "FENGYUN 1C DEB", "group": "fengyun-1c-debris", "lat": -4.968909284741434, "lon": -176.26741960974528, "alt_km": 711.6403400948448, "timestamp": "2025-12-26T09:30:53.918859+00:00", "meta": {"OBJECT_NAME": "FENGYUN 1C DEB", "OBJECT_ID": "1999-025BJA", "EPOCH": "2025-12-25T05:48:08.699040", "MEAN_MOTION": 14.31524634, "ECCENTRICITY": 0.0148292, "INCLINATION": 98.4251, "RA_OF_ASC_NODE": 3.3501, "ARG_OF_PERICENTER": 231.2263, "MEAN_ANOMALY": 127.5595, "EPHEMERIS_TYPE": 0, "CLASSIFICATION_TYPE": "U", "NORAD_CAT_ID": 31172, "ELEMENT_SET_NO": 999, "REV_AT_EPOCH": 97805, "BSTAR": 0.00013612, "MEAN_MOTION_DOT": 3.62e-06, "MEAN_MOTION_DDOT": 0}, "tle": {"line1": "1 31172U 99025BJA 25359.24176735  .00000362  00000+0  13612-3 0  9994", "line2": "2 31172  98.4251   3.3501 0148292 231.2263 127.5595 14.31524634978058"}}, "geometry": {"type": "Point", "coordinates": [-176.26741960974528, -4.968909284741434]}}, {"type": "Feature", "properties": {"norad_id": 31175, "name": "FENGYUN 1C DEB", "group": "fengyun-1c-debris", "lat": 59.77891648496921, "lon": -13.942983555321684, "alt_km": 660.5374585659092, "timestamp": "2025-12-26T09:30:53.918870+00:00", "meta": {"OBJECT_NAME": "FENGYUN 1C DEB", "OBJECT_ID": "1999-025BJD", "EPOCH": "2025-12-25T05:17:08.329920", "MEAN_MOTION": 14.60514995, "ECCENTRICITY": 0.007447, "INCLINATION": 98.3994, "RA_OF_ASC_NODE": 359.5584, "ARG_OF_PERICENTER": 126.5751, "MEAN_ANOMALY": 234.2332, "EPHEMERIS_TYPE": 0, "CLASSIFICATION_TYPE": "U", "NORAD_CAT_ID": 31175, "ELEMENT_SET_NO": 999, "REV_AT_EPOCH": 65821, "BSTAR": 0.0042719, "MEAN_MOTION_DOT": 0.00021568, "MEAN_MOTION_DDOT": 0}, "tle": {"line1": "1 31175U 99025BJD 25359.22023530  .00021568  00000+0  42719-2 0  9999", "line2": "2 31175  98.3994 359.5584 0074470 126.5751 234.2332 14.60514995658214"}}, "geometry": {"type": "Point", "coordinates": [-13.942983555321684, 59.77891648496921]}}, {"type": "Feature", "properties": {"norad_id": 31177, "name": "FENGYUN 1C DEB", "group": "fengyun-1c-debris", "lat": -77.64740284650586, "lon": -42.7814394168253, "alt_km": 806.1188546114054, "timestamp": "2025-12-26T09:30:53.918880+00:00", "meta": {"OBJECT_NAME": "FENGYUN 1C DEB", "OBJECT_ID": "1999-025BJF", "EPOCH": "2025-12-23T05:09:05.978592", "MEAN_MOTION": 13.62419346, "ECCENTRICITY": 0.03079136, "INCLINATION": 98.7579, "RA_OF_ASC_NODE": 269.6149, "ARG_OF_PERICENTER": 286.8418, "MEAN_ANOMALY": 234.2152, "EPHEMERIS_TYPE": 0, "CLASSIFICATION_TYPE": "U", "NORAD_CAT_ID": 31177, "ELEMENT_SET_NO": 999, "REV_AT_EPOCH": 66354, "BSTAR": 0.0047506015, "MEAN_MOTION_DOT": 5.027e-05, "MEAN_MOTION_DDOT": 0}, "tle": {"line1": "1 31177U 99025BJF 25357.21465253  .00005027  00000+0  47506-2 0  9991", "line2": "2 31177  98.7579 269.6149 0307913 286.8418 234.2152 13.62419346663545"}}, "geometry": {"type": "Point", "coordinates": [-42.7814394168253, -77.64740284650586]}}, {"type": "Feature", "properties": {"norad_id": 31178, "name": "FENGYUN 1C DEB", "group": "fengyun-1c-debris", "lat": 54.0551265386823, "lon": -9.667034797258438, "alt_km": 879.2808749141795, "timestamp": "2025-12-26T09:30:53.918891+00:00", "meta": {"OBJECT_NAME": "FENGYUN 1C DEB", "OBJECT_ID": "1999-025BJG", "EPOCH": "2025-12-24T18:25:23.466144", "MEAN_MOTION": 14.22312669, "ECCENTRICITY": 0.01257039, "INCLINATION": 99.5133, "RA_OF_ASC_NODE": 1.9482, "ARG_OF_PERICENTER": 281.5978, "MEAN_ANOMALY": 77.1109, "EPHEMERIS_TYPE": 0, "CLASSIFICATION_TYPE": "U", "NORAD_CAT_ID": 31178, "ELEMENT_SET_NO": 999, "REV_AT_EPOCH": 95986, "BSTAR": 0.0018200205, "MEAN_MOTION_DOT": 4.336e-05, "MEAN_MOTION_DDOT": 0}, "tle": {"line1": "1 31178U 99025BJG 25358.76763271  .00004336  00000+0  18200-2 0  9995", "line2": "2 31178  99.5133   1.9482 0125703 281.5978  77.1109 14.22312669959862"}}, "geometry": {"type": "Point", "coordinates": [-9.667034797258438, 54.0551265386823]}}, {"type": "Feature", "properties": {"norad_id": 31179, "name": "FENGYUN 1C DEB", "group": "fengyun-1c-debris", "lat": -31.66265424821732, "lon": -165.66202590926602, "alt_km": 982.5053567062596, "timestamp": "2025-12-26T09:30:53.918901+00:00", "meta": {"OBJECT_NAME": "FENGYUN 1C DEB", "OBJECT_ID": "1999-025BJH", "EPOCH": "2025-12-18T07:16:13.358496", "MEAN_MOTION": 13.91941548, "ECCENTRICITY": 0.02152306, "INCLINATION": 99.0195, "RA_OF_ASC_NODE": 12.0814, "ARG_OF_PERICENTER": 345.6132, "MEAN_ANOMALY": 13.8961, "EPHEMERIS_TYPE": 0, "CLASSIFICATION_TYPE": "U", "NORAD_CAT_ID": 31179, "ELEMENT_SET_NO": 999, "REV_AT_EPOCH": 62018, "BSTAR": 0.00082156675, "MEAN_MOTION_DOT": 1.222e-05, "MEAN_MOTION_DDOT": 0}, "tle": {"line1": "1 31179U 99025BJH 25352.30293239  .00001222  00000+0  82157-3 0  9996", "line2": "2 31179  99.0195  12.0814 0215230 345.6132  13.8961 13.91941548620189"}}, "geometry": {"type": "Point", "coordinates": [-165.66202590926602, -31.66265424821732]}}, {"type": "Feature", "properties": {"norad_id": 31180, "name": "FENGYUN 1C DEB", "group": "fengyun-1c-debris", "lat": -20.70276466732567, "lon": 134.9500343711987, "alt_km": 735.3332592825209, "timestamp": "2025-12-26T09:30:53.918912+00:00", "meta": {"OBJECT_NAME": "FENGYUN 1C DEB", "OBJECT_ID": "1999-025BJJ", "EPOCH": "2025-12-25T02:56:06.052128", "MEAN_MOTION": 13.70352181, "ECCENTRICITY": 0.04978868, "INCLINATION": 99.2183, "RA_OF_ASC_NODE": 130.2046, "ARG_OF_PERICENTER": 27.5852, "MEAN_ANOMALY": 153.0216, "EPHEMERIS_TYPE": 0, "CLASSIFICATION_TYPE": "U", "NORAD_CAT_ID": 31180, "ELEMENT_SET_NO": 999, "REV_AT_EPOCH": 64236, "BSTAR": 0.00018511996, "MEAN_MOTION_DOT": 3.49e-06, "MEAN_MOTION_DDOT": 0}, "tle": {"line1": "1 31180U 99025BJJ 25359.12229227  .00000349  00000+0  18512-3 0  9994", "line2": "2 31180  99.2183 130.2046 0497886  27.5852 153.0216 13.70352181642364"}}, "geometry": {"type": "Point", "coordinates": [134.9500343711987, -20.70276466732567]}}, {"type": "Feature", "properties": {"norad_id": 31181, "name": "FENGYUN 1C DEB", "group": "fengyun-1c-debris", "lat": 66.48781286750591, "lon": -126.55004675425488, "alt_km": 837.8472668615286, "timestamp": "2025-12-26T09:30:53.918922+00:00", "meta": {"OBJECT_NAME": "FENGYUN 1C DEB", "OBJECT_ID": "1999-025BJK", "EPOCH": "2025-12-24T01:00:26.112960", "MEAN_MOTION": 14.11923145, "ECCENTRICITY": 0.00473296, "INCLINATION": 98.7756, "RA_OF_ASC_NODE": 30.3499, "ARG_OF_PERICENTER": 42.4945, "MEAN_ANOMALY": 347.8007, "EPHEMERIS_TYPE": 0, "CLASSIFICATION_TYPE": "U", "NORAD_CAT_ID": 31181, "ELEMENT_SET_NO": 999, "REV_AT_EPOCH": 95927, "BSTAR": 0.00087568947, "MEAN_MOTION_DOT": 1.575e-05, "MEAN_MOTION_DDOT": 0}, "tle": {"line1": "1 31181U 99025BJK 25358.04196890  .00001575  00000+0  87569-3 0  9994", "line2": "2 31181  98.7756  30.3499 0047329  42.4945 347.8007 14.11923145959271"}}, "geometry": {"type": "Point", "coordinates": [-126.55004675425488, 66.48781286750591]}}]}